     2.10           N: GPS NAV DATA                         RINEX VERSION / TYPE
teqc  2013Mar15     gpsops              20140527 00:05:24UTCPGM / RUN BY / DATE
Linux 2.4.21-27.ELsmp|Opteron|gcc -static|Linux x86_64|=+   COMMENT
MADR                                    MARKER NAME         COMMENT
13407S012                               MARKER NUMBER       COMMENT
4849202.3940 -360328.9929 4114913.1862                      COMMENT
                                                            COMMENT
This data is provided as a public service by NASA/JPL.      COMMENT
No warranty is expressed or implied regarding suitability   COMMENT
for use.  For further information, contact:                 COMMENT
Dave Stowers, NASA/JPL m/s 238-600                          COMMENT
4800 Oak Grove Drive, Pasadena CA 91109 USA                 COMMENT
                                                            END OF HEADER
10 14  5 26  7 59 44.0-1.271162182093D-04-1.591615728103D-12 0.000000000000D+00
    3.800000000000D+01 1.881250000000D+01 4.855916554130D-09 2.141326502821D+00
    8.363276720047D-07 1.356414740440D-02 1.262687146664D-05 5.153738361359D+03
    1.151840000000D+05-2.123415470123D-07-6.387897097783D-01-3.017485141754D-07
    9.421950543888D-01 1.253437500000D+02 8.654454623973D-01-7.931044645558D-09
   -3.889447725395D-10 1.000000000000D+00 1.794000000000D+03 0.000000000000D+00
    2.000000000000D+00 0.000000000000D+00-2.793967723846D-09 3.800000000000D+01
    1.080300000000D+05 4.000000000000D+00
16 14  5 26  8  0  0.0-2.165250480175D-04 1.932676241267D-12 0.000000000000D+00
    9.600000000000D+01-8.118750000000D+01 3.536575884010D-09 2.017423544280D+00
   -4.179775714874D-06 7.755001774058D-03 1.114606857300D-05 5.153599878311D+03
    1.152000000000D+05-7.264316082001D-08 2.547796346927D+00 3.539025783539D-08
    9.883614076655D-01 1.818750000000D+02 2.094519998537D-01-7.536385349272D-09
   -9.250385315679D-11 1.000000000000D+00 1.794000000000D+03 0.000000000000D+00
    2.000000000000D+00 0.000000000000D+00-1.024454832077D-08 9.600000000000D+01
    1.080900000000D+05 4.000000000000D+00
 4 14  5 26  7 59 44.0 6.932765245438D-06 1.136868377216D-13 0.000000000000D+00
    5.000000000000D+00-2.531250000000D+01 5.558445817294D-09 2.919470459229D+00
   -1.471489667892D-06 1.056589093059D-02 4.954636096954D-06 5.153727645874D+03
    1.151840000000D+05 5.960464477539D-08-1.708073814919D+00-1.471489667892D-07
    9.379869061653D-01 2.727500000000D+02 1.099266842316D+00-8.343204670821D-09
   -1.639353999960D-10 1.000000000000D+00 1.794000000000D+03 0.000000000000D+00
    2.000000000000D+00 0.000000000000D+00-6.519258022308D-09 5.000000000000D+00
    1.084800000000D+05 4.000000000000D+00
28 14  5 26  8  0  0.0 3.576078452170D-04 2.842170943040D-12 0.000000000000D+00
    1.080000000000D+02-1.039687500000D+02 3.464787179436D-09 1.917128238989D+00
   -5.470588803291D-06 1.912069902755D-02 1.156516373158D-05 5.153678077698D+03
    1.152000000000D+05 1.844018697739D-07 2.553572458063D+00-4.172325134277D-07
    9.868907668417D-01 1.675625000000D+02-1.715127035983D+00-7.398879621606D-09
    6.071681481333D-11 1.000000000000D+00 1.794000000000D+03 0.000000000000D+00
    2.000000000000D+00 0.000000000000D+00-1.071020960808D-08 1.080000000000D+02
    1.098600000000D+05 4.000000000000D+00
15 14  5 26  8  0  0.0-1.816395670176D-04-2.160049916711D-12 0.000000000000D+00
    6.500000000000D+01 1.157500000000D+02 5.161286416868D-09 3.905780289598D-01
    6.096437573433D-06 6.253258557990D-03 6.588175892830D-06 5.153698387146D+03
    1.152000000000D+05 2.048909664154D-08 3.574995450053D-01 2.235174179077D-08
    9.371082190502D-01 2.342500000000D+02 2.746412767116D-01-8.527855219400D-09
    1.071473202588D-10 1.000000000000D+00 1.794000000000D+03 0.000000000000D+00
    2.000000000000D+00 0.000000000000D+00-1.024454832077D-08 6.500000000000D+01
    1.129800000000D+05 4.000000000000D+00
 7 14  5 26 10  0  0.0 3.505251370370D-04 4.206412995700D-12 0.000000000000D+00
    1.110000000000D+02-4.909375000000D+01 4.531974489214D-09-6.287913186309D-01
   -2.738088369370D-06 7.356392801739D-03 2.222135663033D-06 5.153626224518D+03
    1.224000000000D+05 1.229345798492D-07 1.465905014199D+00 2.048909664154D-08
    9.731813606814D-01 3.430000000000D+02-2.838691056042D+00-8.391420964937D-09
   -3.553719455251D-10 1.000000000000D+00 1.794000000000D+03 0.000000000000D+00
    2.000000000000D+00 0.000000000000D+00-1.071020960808D-08 1.110000000000D+02
    1.152000000000D+05 4.000000000000D+00
 8 14  5 26 10  0  0.0 1.378823071718D-05 2.273736754432D-13 0.000000000000D+00
    8.100000000000D+01-6.578125000000D+01 3.901948246092D-09-1.126383778566D+00
   -3.494322299957D-06 1.369619101752D-02 2.896413207054D-06 5.153354150772D+03
    1.224000000000D+05 2.123415470123D-07 1.565363287504D+00-1.583248376846D-07
    9.964343133516D-01 3.406562500000D+02-2.774205823139D+00-8.002119034663D-09
   -3.210848030423D-10 1.000000000000D+00 1.794000000000D+03 0.000000000000D+00
    2.000000000000D+00 0.000000000000D+00-4.190951585770D-09 8.100000000000D+01
    1.152000000000D+05 4.000000000000D+00
 9 14  5 26 10  0  0.0 3.304323181510D-04 2.842170943040D-12 0.000000000000D+00
    1.800000000000D+01-4.237500000000D+01 4.402683389435D-09 4.181521329605D-01
   -2.430751919746D-06 1.718950702343D-02 2.723187208176D-06 5.153675407410D+03
    1.224000000000D+05-1.862645149231D-07 1.445494046149D+00-1.695007085800D-07
    9.817190178862D-01 3.434375000000D+02 1.809939893387D+00-8.555713522667D-09
   -3.839445642608D-10 1.000000000000D+00 1.794000000000D+03 0.000000000000D+00
    2.000000000000D+00 6.300000000000D+01-6.053596735001D-09 1.800000000000D+01
    1.152000000000D+05 4.000000000000D+00
15 14  5 26 10  0  0.0-1.816549338400D-04-2.160049916711D-12 0.000000000000D+00
    7.600000000000D+01 1.276250000000D+02 5.185930300527D-09 1.440542347868D+00
    6.882473826408D-06 6.254577194341D-03 7.135793566704D-06 5.153701833725D+03
    1.224000000000D+05 6.891787052155D-08 3.574377367165D-01 9.313225746155D-08
    9.371091070415D-01 2.275000000000D+02 2.748462783478D-01-8.546427421578D-09
    1.728643433509D-10 1.000000000000D+00 1.794000000000D+03 0.000000000000D+00
    2.000000000000D+00 0.000000000000D+00-1.024454832077D-08 7.600000000000D+01
    1.152000000000D+05 4.000000000000D+00
26 14  5 26 10  0  0.0 6.691971793771D-05-1.193711796077D-11 0.000000000000D+00
    5.200000000000D+01 1.133125000000D+02 4.506973447820D-09 8.956229315243D-01
    5.954876542091D-06 2.135153068230D-02 6.299465894699D-06 5.153694112778D+03
    1.224000000000D+05-3.259629011154D-07 4.924783982278D-01 1.117587089539D-08
    9.752824124043D-01 2.708437500000D+02 1.285092744448D+00-8.513568910032D-09
    1.642925577302D-10 1.000000000000D+00 1.794000000000D+03 0.000000000000D+00
    2.000000000000D+00 0.000000000000D+00-6.053596735001D-09 5.200000000000D+01
    1.152000000000D+05 4.000000000000D+00
 2 14  5 26 10  0  0.0 4.974924959242D-04 2.160049916711D-12 0.000000000000D+00
    3.300000000000D+01-1.568750000000D+01 5.568089076117D-09 6.137808531105D-01
   -9.257346391678D-07 1.355926995166D-02 5.034729838371D-06 5.153600027084D+03
    1.224000000000D+05-1.396983861923D-07-1.724164313359D+00 2.160668373108D-07
    9.389706483536D-01 2.729062500000D+02-2.422123136088D+00-8.676789994560D-09
   -2.089372745047D-10 1.000000000000D+00 1.794000000000D+03 0.000000000000D+00
    2.000000000000D+00 0.000000000000D+00-2.048909664154D-08 3.300000000000D+01
    1.152300000000D+05 4.000000000000D+00
 5 14  5 26 10  0  0.0-3.702775575221D-04 2.614797267597D-12 0.000000000000D+00
    8.100000000000D+01 1.718750000000D+01 4.773770275265D-09 2.974027423037D+00
    9.257346391678D-07 3.571768756956D-03 1.225620508194D-05 5.153604873657D+03
    1.224000000000D+05-5.401670932770D-08-6.561164544553D-01-6.519258022308D-08
    9.473789514160D-01 1.361875000000D+02 3.100847096442D-01-7.906043604165D-09
   -3.843017219950D-10 1.000000000000D+00 1.794000000000D+03 0.000000000000D+00
    2.000000000000D+00 0.000000000000D+00-1.024454832077D-08 8.100000000000D+01
    1.152300000000D+05 4.000000000000D+00
30 14  5 26 10  0  0.0-1.638475805521D-05-5.684341886081D-12 0.000000000000D+00
    9.700000000000D+01-6.031250000000D+01 4.766269962847D-09-3.599848350876D-01
   -3.229826688766D-06 7.041196804494D-04 2.324581146240D-06 5.153696094513D+03
    1.224000000000D+05-2.793967723846D-08 1.520423497410D+00-1.490116119385D-08
    9.587435500543D-01 3.352812500000D+02 2.709690833020D+00-8.467852720055D-09
   -3.668009930194D-10 1.000000000000D+00 1.794000000000D+03 0.000000000000D+00
    2.000000000000D+00 6.300000000000D+01 3.259629011154D-09 9.700000000000D+01
    1.152300000000D+05 4.000000000000D+00
10 14  5 26 10  0  0.0-1.271278597414D-04-1.591615728103D-12 0.000000000000D+00
    3.900000000000D+01 3.000000000000D+01 4.718767984199D-09-3.089430322831D+00
    1.290813088417D-06 1.356250373647D-02 1.220777630806D-05 5.153741586685D+03
    1.224000000000D+05 2.607703208923D-08-6.388461389174D-01-2.756714820862D-07
    9.421927854028D-01 1.326562500000D+02 8.654930423449D-01-7.806753754058D-09
   -3.775157250453D-10 1.000000000000D+00 1.794000000000D+03 0.000000000000D+00
    2.000000000000D+00 0.000000000000D+00-2.793967723846D-09 3.900000000000D+01
    1.152300000000D+05 4.000000000000D+00
28 14  5 26 10  0  0.0 3.576278686523D-04 2.842170943040D-12 0.000000000000D+00
    1.090000000000D+02-9.603125000000D+01 3.337996183797D-09 2.967281849257D+00
   -4.898756742477D-06 1.911969354842D-02 1.171976327896D-05 5.153679840088D+03
    1.224000000000D+05 1.639127731323D-07 2.553521435869D+00-5.960464477539D-08
    9.868915860759D-01 1.621250000000D+02-1.715111156007D+00-7.145297630327D-09
   -6.678849629467D-11 1.000000000000D+00 1.794000000000D+03 0.000000000000D+00
    2.000000000000D+00 0.000000000000D+00-1.071020960808D-08 1.090000000000D+02
    1.152300000000D+05 4.000000000000D+00
